{"type": "FeatureCollection", "features": [ {"type": "Feature", "properties": {"norad_id": 42969, "name": "SENTINEL-5P", "group": "resource", "lat": 27.378697258264935, "lon": -79.30376649266799, "alt_km": 825.4655940180483, "timestamp": "2025-12-12T16:50:32.805075+00:00", "meta": {"OBJECT_NAME": "SENTINEL-5P", "OBJECT_ID": "2017-064A", "EPOCH": "2025-12-12T06:33:44.029728", "MEAN_MOTION": 14.19517396, "ECCENTRICITY": 9.504e-05, "INCLINATION": 98.7785, "RA_OF_ASC_NODE": 284.8617, "ARG_OF_PERICENTER": 88.773, "MEAN_ANOMALY": 271.3555, "EPHEMERIS_TYPE": 0, "CLASSIFICATION_TYPE": "U", "NORAD_CAT_ID": 42969, "ELEMENT_SET_NO": 999, "REV_AT_EPOCH": 42304, "BSTAR": 9.4414653e-05, "MEAN_MOTION_DOT": 1.55e-06, "MEAN_MOTION_DDOT": 0}, "tle": {"line1": "1 42969U 17064A   25346.27342627  .00000155  00000+0  94415-4 0  9998", "line2": "2 42969  98.7785 284.8617 0000950  88.7730 271.3555 14.19517396423046"}}, "geometry": {"type": "Point", "coordinates": [-79.30376649266799, 27.378697258264935]}}, {"type": "Feature", "properties": {"norad_id": 42987, "name": "SKYSAT-C11", "group": "resource", "lat": 55.23867640218938, "lon": -44.99353153622367, "alt_km": 418.4109387721428, "timestamp": "2025-12-12T16:50:32.805085+00:00", "meta": {"OBJECT_NAME": "SKYSAT-C11", "OBJECT_ID": "2017-068A", "EPOCH": "2025-12-12T05:26:40.805088", "MEAN_MOTION": 15.47412785, "ECCENTRICITY": 9.576e-05, "INCLINATION": 97.414, "RA_OF_ASC_NODE": 123.7054, "ARG_OF_PERICENTER": 102.6858, "MEAN_ANOMALY": 257.4499, "EPHEMERIS_TYPE": 0, "CLASSIFICATION_TYPE": "U", "NORAD_CAT_ID": 42987, "ELEMENT_SET_NO": 999, "REV_AT_EPOCH": 45423, "BSTAR": 0.00060118187, "MEAN_MOTION_DOT": 0.0003077, "MEAN_MOTION_DDOT": 0}, "tle": {"line1": "1 42987U 17068A   25346.22686117  .00030770  00000+0  60118-3 0  9990", "line2": "2 42987  97.4140 123.7054 0000957 102.6858 257.4499 15.47412785454232"}}, "geometry": {"type": "Point", "coordinates": [-44.99353153622367, 55.23867640218938]}}, {"type": "Feature", "properties": {"norad_id": 42988, "name": "SKYSAT-C10", "group": "resource", "lat": -26.538072977405424, "lon": -66.1823594757764, "alt_km": 476.3204804464922, "timestamp": "2025-12-12T16:50:32.805096+00:00", "meta": {"OBJECT_NAME": "SKYSAT-C10", "OBJECT_ID": "2017-068B", "EPOCH": "2025-12-12T06:32:18.310560", "MEAN_MOTION": 15.3204752, "ECCENTRICITY": 0.00053447, "INCLINATION": 97.4255, "RA_OF_ASC_NODE": 117.1218, "ARG_OF_PERICENTER": 104.7336, "MEAN_ANOMALY": 255.4499, "EPHEMERIS_TYPE": 0, "CLASSIFICATION_TYPE": "U", "NORAD_CAT_ID": 42988, "ELEMENT_SET_NO": 999, "REV_AT_EPOCH": 45372, "BSTAR": 0.00053154411, "MEAN_MOTION_DOT": 0.00016392, "MEAN_MOTION_DDOT": 0}, "tle": {"line1": "1 42988U 17068B   25346.27243415  .00016392  00000+0  53154-3 0  9992", "line2": "2 42988  97.4255 117.1218 0005344 104.7336 255.4499 15.32047520453724"}}, "geometry": {"type": "Point", "coordinates": [-66.1823594757764, -26.538072977405424]}}, {"type": "Feature", "properties": {"norad_id": 42989, "name": "SKYSAT-C9", "group": "resource", "lat": 52.82298907976345, "lon": 107.06201508475657, "alt_km": 446.8795392811335, "timestamp": "2025-12-12T16:50:32.805106+00:00", "meta": {"OBJECT_NAME": "SKYSAT-C9", "OBJECT_ID": "2017-068C", "EPOCH": "2025-12-12T07:13:47.624160", "MEAN_MOTION": 15.36032982, "ECCENTRICITY": 0.00106381, "INCLINATION": 97.4186, "RA_OF_ASC_NODE": 116.5513, "ARG_OF_PERICENTER": 88.8897, "MEAN_ANOMALY": 271.3566, "EPHEMERIS_TYPE": 0, "CLASSIFICATION_TYPE": "U", "NORAD_CAT_ID": 42989, "ELEMENT_SET_NO": 999, "REV_AT_EPOCH": 45401, "BSTAR": 0.00055011012, "MEAN_MOTION_DOT": 0.00019281, "MEAN_MOTION_DDOT": 0}, "tle": {"line1": "1 42989U 17068C   25346.30124565  .00019281  00000+0  55011-3 0  9995", "line2": "2 42989  97.4186 116.5513 0010638  88.8897 271.3566 15.36032982454010"}}, "geometry": {"type": "Point", "coordinates": [107.06201508475657, 52.82298907976345]}}, {"type": "Feature", "properties": {"norad_id": 42990, "name": "SKYSAT-C8", "group": "resource", "lat": 24.537786084035275, "lon": 113.28658113401747, "alt_km": 465.6499136008906, "timestamp": "2025-12-12T16:50:32.805116+00:00", "meta": {"OBJECT_NAME": "SKYSAT-C8", "OBJECT_ID": "2017-068D", "EPOCH": "2025-12-12T07:20:05.443584", "MEAN_MOTION": 15.32905286, "ECCENTRICITY": 0.00016265, "INCLINATION": 97.4275, "RA_OF_ASC_NODE": 116.3032, "ARG_OF_PERICENTER": 350.7763, "MEAN_ANOMALY": 9.3449, "EPHEMERIS_TYPE": 0, "CLASSIFICATION_TYPE": "U", "NORAD_CAT_ID": 42990, "ELEMENT_SET_NO": 999, "REV_AT_EPOCH": 45364, "BSTAR": 0.00052846279, "MEAN_MOTION_DOT": 0.00016735, "MEAN_MOTION_DDOT": 0}, "tle": {"line1": "1 42990U 17068D   25346.30561856  .00016735  00000+0  52846-3 0  9999", "line2": "2 42990  97.4275 116.3032 0001626 350.7763   9.3449 15.32905286453644"}}, "geometry": {"type": "Point", "coordinates": [113.28658113401747, 24.537786084035275]}}, {"type": "Feature", "properties": {"norad_id": 42991, "name": "SKYSAT-C7", "group": "resource", "lat": -59.580942496054355, "lon": -75.09686000297559, "alt_km": 481.3160191544557, "timestamp": "2025-12-12T16:50:32.805127+00:00", "meta": {"OBJECT_NAME": "SKYSAT-C7", "OBJECT_ID": "2017-068E", "EPOCH": "2025-12-11T20:59:22.535232", "MEAN_MOTION": 15.32294521, "ECCENTRICITY": 0.0007687, "INCLINATION": 97.4285, "RA_OF_ASC_NODE": 116.9127, "ARG_OF_PERICENTER": 59.5995, "MEAN_ANOMALY": 300.6005, "EPHEMERIS_TYPE": 0, "CLASSIFICATION_TYPE": "U", "NORAD_CAT_ID": 42991, "ELEMENT_SET_NO": 999, "REV_AT_EPOCH": 45364, "BSTAR": 0.00051899, "MEAN_MOTION_DOT": 0.00016134, "MEAN_MOTION_DDOT": 0}, "tle": {"line1": "1 42991U 17068E   25345.87456638  .00016134  00000+0  51899-3 0  9992", "line2": "2 42991  97.4285 116.9127 0007687  59.5995 300.6005 15.32294521453649"}}, "geometry": {"type": "Point", "coordinates": [-75.09686000297559, -59.580942496054355]}}, {"type": "Feature", "properties": {"norad_id": 42992, "name": "SKYSAT-C6", "group": "resource", "lat": -2.757455838137707, "lon": 118.54139330618851, "alt_km": 474.5124710565524, "timestamp": "2025-12-12T16:50:32.805137+00:00", "meta": {"OBJECT_NAME": "SKYSAT-C6", "OBJECT_ID": "2017-068F", "EPOCH": "2025-12-12T07:26:44.975328", "MEAN_MOTION": 15.31474953, "ECCENTRICITY": 0.00051986, "INCLINATION": 97.4317, "RA_OF_ASC_NODE": 117.7887, "ARG_OF_PERICENTER": 83.6363, "MEAN_ANOMALY": 276.547, "EPHEMERIS_TYPE": 0, "CLASSIFICATION_TYPE": "U", "NORAD_CAT_ID": 42992, "ELEMENT_SET_NO": 999, "REV_AT_EPOCH": 45369, "BSTAR": 0.00053031604, "MEAN_MOTION_DOT": 0.00016064, "MEAN_MOTION_DDOT": 0}, "tle": {"line1": "1 42992U 17068F   25346.31024277  .00016064  00000+0  53032-3 0  9996", "line2": "2 42992  97.4317 117.7887 0005198  83.6363 276.5470 15.31474953453690"}}, "geometry": {"type": "Point", "coordinates": [118.54139330618851, -2.757455838137707]}}, {"type": "Feature", "properties": {"norad_id": 43111, "name": "CARTOSAT-2F", "group": "resource", "lat": 72.82946966182475, "lon": -110.67112348018648, "alt_km": 500.4468376560699, "timestamp": "2025-12-12T16:50:32.805147+00:00", "meta": {"OBJECT_NAME": "CARTOSAT-2F", "OBJECT_ID": "2018-004A", "EPOCH": "2025-12-12T08:28:34.493664", "MEAN_MOTION": 15.19271482, "ECCENTRICITY": 0.00010362, "INCLINATION": 97.4318, "RA_OF_ASC_NODE": 43.9964, "ARG_OF_PERICENTER": 138.9974, "MEAN_ANOMALY": 221.1339, "EPHEMERIS_TYPE": 0, "CLASSIFICATION_TYPE": "U", "NORAD_CAT_ID": 43111, "ELEMENT_SET_NO": 999, "REV_AT_EPOCH": 43896, "BSTAR": 0.00037969757, "MEAN_MOTION_DOT": 7.943e-05, "MEAN_MOTION_DDOT": 0}, "tle": {"line1": "1 43111U 18004A   25346.35317701  .00007943  00000+0  37970-3 0  9991", "line2": "2 43111  97.4318  43.9964 0001036 138.9974 221.1339 15.19271482438961"}}, "geometry": {"type": "Point", "coordinates": [-110.67112348018648, 72.82946966182475]}}, {"type": "Feature", "properties": {"norad_id": 43259, "name": "GAOFEN-1 02", "group": "resource", "lat": -56.9406421106864, "lon": -148.11623565642637, "alt_km": 646.6026717136265, "timestamp": "2025-12-12T16:50:32.805158+00:00", "meta": {"OBJECT_NAME": "GAOFEN-1 02", "OBJECT_ID": "2018-031A", "EPOCH": "2025-12-12T07:38:09.564864", "MEAN_MOTION": 14.76413889, "ECCENTRICITY": 0.00017311, "INCLINATION": 98.0803, "RA_OF_ASC_NODE": 44.1073, "ARG_OF_PERICENTER": 219.1812, "MEAN_ANOMALY": 140.9272, "EPHEMERIS_TYPE": 0, "CLASSIFICATION_TYPE": "U", "NORAD_CAT_ID": 43259, "ELEMENT_SET_NO": 999, "REV_AT_EPOCH": 41512, "BSTAR": 0.00024991178, "MEAN_MOTION_DOT": 1.685e-05, "MEAN_MOTION_DDOT": 0}, "tle": {"line1": "1 43259U 18031A   25346.31816626  .00001685  00000+0  24991-3 0  9996", "line2": "2 43259  98.0803  44.1073 0001731 219.1812 140.9272 14.76413889415127"}}, "geometry": {"type": "Point", "coordinates": [-148.11623565642637, -56.9406421106864]}}, {"type": "Feature", "properties": {"norad_id": 43260, "name": "GAOFEN-1 03", "group": "resource", "lat": -7.095659314693475, "lon": 45.38122640801307, "alt_km": 643.257070534456, "timestamp": "2025-12-12T16:50:32.805168+00:00", "meta": {"OBJECT_NAME": "GAOFEN-1 03", "OBJECT_ID": "2018-031B", "EPOCH": "2025-12-12T07:06:56.539008", "MEAN_MOTION": 14.76435539, "ECCENTRICITY": 0.00020134, "INCLINATION": 98.08, "RA_OF_ASC_NODE": 43.9626, "ARG_OF_PERICENTER": 324.306, "MEAN_ANOMALY": 35.8014, "EPHEMERIS_TYPE": 0, "CLASSIFICATION_TYPE": "U", "NORAD_CAT_ID": 43260, "ELEMENT_SET_NO": 999, "REV_AT_EPOCH": 41511, "BSTAR": 0.00022369076, "MEAN_MOTION_DOT": 1.504e-05, "MEAN_MOTION_DDOT": 0}, "tle": {"line1": "1 43260U 18031B   25346.29648772  .00001504  00000+0  22369-3 0  9997", "line2": "2 43260  98.0800  43.9626 0002013 324.3060  35.8014 14.76435539415116"}}, "geometry": {"type": "Point", "coordinates": [45.38122640801307, -7.095659314693475]}}]}